ONEWEB-0674             
1 55833U 23029AP  25098.16743236 -.00000064  00000+0 -20656-3 0  9999
2 55833  87.9097  16.2445 0002383  76.4972 283.6423 13.14501077102942
ONEWEB-0675             
1 55834U 23029AQ  25097.79138205 -.00000439  00000+0 -11280-2 0  9990
2 55834  87.9252  31.5293 0001564  81.6890 278.4420 13.19725064101491
ONEWEB-0720             
1 55835U 23029AR  25097.78350077  .00000094  00000+0  20209-3 0  9990
2 55835  87.9253  31.5278 0002020  66.7432 293.3914 13.19725838101415
ONEWEB-0537             
1 56046U 23043A   25097.65601573  .00000118  00000+0  27503-3 0  9998
2 56046  87.9042 315.5799 0001585  91.5053 268.6260 13.16594818101653
ONEWEB-0538             
1 56047U 23043B   25098.10567019  .00000013  00000+0  88714-9 0  9997
2 56047  87.9042 315.5124 0001439  81.0145 279.1149 13.16594423102634
ONEWEB-0546             
1 56048U 23043C   25098.09300647 -.00000063  00000+0 -19748-3 0  9990
2 56048  87.9043 315.4835 0001685 110.5034 249.6278 13.16593603102625
ONEWEB-0547             
1 56049U 23043D   25097.91941783  .00000000  00000+0 -31894-4 0  9990
2 56049  87.9291 330.7798 0001620  76.9030 283.2284 13.21825180101634
ONEWEB-0548             
1 56050U 23043E   25097.89034583  .00000075  00000+0  16272-3 0  9993
2 56050  87.9045 315.5649 0002246  84.7394 275.3993 13.16595051102594
